[{"OBJECT_NAME":"KINEIS-1B","OBJECT_ID":"2024-114A","EPOCH":"2026-03-09T23:21:36.874080","MEAN_MOTION":14.80419144,"ECCENTRICITY":0.00037258,"INCLINATION":97.9923,"RA_OF_ASC_NODE":93.6056,"ARG_OF_PERICENTER":72.6179,"MEAN_ANOMALY":287.544,"EPHEMERIS_TYPE":0,"CLASSIFICATION_TYPE":"U","NORAD_CAT_ID":60079,"ELEMENT_SET_NO":999,"REV_AT_EPOCH":9272,"BSTAR":0.00022203234,"MEAN_MOTION_DOT":1.644e-5,"MEAN_MOTION_DDOT":0},{"OBJECT_NAME":"KUIPER-00108","OBJECT_ID":"2025-171Q","EPOCH":"2026-03-09T10:31:12.671904","MEAN_MOTION":14.79936216,"ECCENTRICITY":8.786e-5,"INCLINATION":51.9022,"RA_OF_ASC_NODE":161.7205,"ARG_OF_PERICENTER":176.7524,"MEAN_ANOMALY":183.3445,"EPHEMERIS_TYPE":0,"CLASSIFICATION_TYPE":"U","NORAD_CAT_ID":65146,"ELEMENT_SET_NO":999,"REV_AT_EPOCH":3282,"BSTAR":0.00024776602,"MEAN_MOTION_DOT":1.668e-5,"MEAN_MOTION_DDOT":0}]
